{
  "norad_id": 56040,
  "name": "STARLINK-5798",
  "history": [
    {
      "epoch": "2026-03-28T20:58:42.931200",
      "apogee_km": 486.619385904567,
      "perigee_km": 484.5012489124156,
      "latitude_deg": 42.868116195127214,
      "longitude_deg": -132.08563199988566,
      "semi_major_axis_km": 6863.6973174084915,
      "eccentricity": 0.0001543,
      "inclination_deg": 43.002,
      "raan_deg": 282.6109,
      "arg_perigee_deg": 273.9889,
      "mean_anomaly_deg": 86.0786,
      "mean_motion_rev_day": 15.26741733
    }
  ]
}